[{"OBJECT_NAME":"HST","OBJECT_ID":"1990-037B","EPOCH":"2026-04-01T12:23:53.875392","MEAN_MOTION":15.29849412,"ECCENTRICITY":0.0001988,"INCLINATION":28.472,"RA_OF_ASC_NODE":244.2399,"ARG_OF_PERICENTER":30.6605,"MEAN_ANOMALY":329.4107,"EPHEMERIS_TYPE":0,"CLASSIFICATION_TYPE":"U","NORAD_CAT_ID":20580,"ELEMENT_SET_NO":999,"REV_AT_EPOCH":77681,"BSTAR":0.00030432,"MEAN_MOTION_DOT":9.29e-5,"MEAN_MOTION_DDOT":0},{"OBJECT_NAME":"POLAR","OBJECT_ID":"1996-013A","EPOCH":"2026-03-31T05:51:59.787072","MEAN_MOTION":1.29845737,"ECCENTRICITY":0.6391582,"INCLINATION":79.7777,"RA_OF_ASC_NODE":227.9483,"ARG_OF_PERICENTER":211.7339,"MEAN_ANOMALY":85.2867,"EPHEMERIS_TYPE":0,"CLASSIFICATION_TYPE":"U","NORAD_CAT_ID":23802,"ELEMENT_SET_NO":999,"REV_AT_EPOCH":14384,"BSTAR":0,"MEAN_MOTION_DOT":7.2e-7,"MEAN_MOTION_DDOT":0},{"OBJECT_NAME":"SWAS","OBJECT_ID":"1998-071A","EPOCH":"2026-04-01T08:07:13.577376","MEAN_MOTION":15.09054527,"ECCENTRICITY":0.0005884,"INCLINATION":69.8957,"RA_OF_ASC_NODE":65.6139,"ARG_OF_PERICENTER":337.8312,"MEAN_ANOMALY":22.2597,"EPHEMERIS_TYPE":0,"CLASSIFICATION_TYPE":"U","NORAD_CAT_ID":25560,"ELEMENT_SET_NO":999,"REV_AT_EPOCH":48567,"BSTAR":0.00027353,"MEAN_MOTION_DOT":4.239e-5,"MEAN_MOTION_DDOT":0},{"OBJECT_NAME":"CXO","OBJECT_ID":"1999-040B","EPOCH":"2026-04-02T16:28:35.736672","MEAN_MOTION":0.37810289,"ECCENTRICITY":0.7957023,"INCLINATION":54.9638,"RA_OF_ASC_NODE":118.8603,"ARG_OF_PERICENTER":310.6798,"MEAN_ANOMALY":0.0859,"EPHEMERIS_TYPE":0,"CLASSIFICATION_TYPE":"U","NORAD_CAT_ID":25867,"ELEMENT_SET_NO":999,"REV_AT_EPOCH":1704,"BSTAR":0,"MEAN_MOTION_DOT":7.38e-6,"MEAN_MOTION_DDOT":0},{"OBJECT_NAME":"XMM-NEWTON","OBJECT_ID":"1999-066A","EPOCH":"2026-04-01T13:25:02.092800","MEAN_MOTION":0.50131173,"ECCENTRICITY":0.46998596,"INCLINATION":64.869,"RA_OF_ASC_NODE":283.9727,"ARG_OF_PERICENTER":66.2848,"MEAN_ANOMALY":0.0194,"EPHEMERIS_TYPE":0,"CLASSIFICATION_TYPE":"U","NORAD_CAT_ID":25989,"ELEMENT_SET_NO":999,"REV_AT_EPOCH":2262,"BSTAR":0,"MEAN_MOTION_DOT":2.0e-7,"MEAN_MOTION_DDOT":0},{"OBJECT_NAME":"TERRA","OBJECT_ID":"1999-068A","EPOCH":"2026-04-01T10:50:46.158432","MEAN_MOTION":14.61038626,"ECCENTRICITY":0.0003634,"INCLINATION":97.9545,"RA_OF_ASC_NODE":144.0117,"ARG_OF_PERICENTER":104.6473,"MEAN_ANOMALY":313.0502,"EPHEMERIS_TYPE":0,"CLASSIFICATION_TYPE":"U","NORAD_CAT_ID":25994,"ELEMENT_SET_NO":999,"REV_AT_EPOCH":39840,"BSTAR":0.00010511,"MEAN_MOTION_DOT":4.72e-6,"MEAN_MOTION_DDOT":0},{"OBJECT_NAME":"CLUSTER II-FM7 (SAMBA)","OBJECT_ID":"2000-041A","EPOCH":"2026-03-31T00:54:20.014560","MEAN_MOTION":0.44796982,"ECCENTRICITY":0.89530667,"INCLINATION":149.3581,"RA_OF_ASC_NODE":38.1493,"ARG_OF_PERICENTER":254.4502,"MEAN_ANOMALY":0.4223,"EPHEMERIS_TYPE":0,"CLASSIFICATION_TYPE":"U","NORAD_CAT_ID":26410,"ELEMENT_SET_NO":999,"REV_AT_EPOCH":1996,"BSTAR":0,"MEAN_MOTION_DOT":2.444e-5,"MEAN_MOTION_DDOT":0},{"OBJECT_NAME":"CLUSTER II-FM8 (TANGO)","OBJECT_ID":"2000-045B","EPOCH":"2026-04-01T20:34:37.124832","MEAN_MOTION":0.44400395,"ECCENTRICITY":0.89593231,"INCLINATION":149.661,"RA_OF_ASC_NODE":39.2823,"ARG_OF_PERICENTER":255.459,"MEAN_ANOMALY":0.3323,"EPHEMERIS_TYPE":0,"CLASSIFICATION_TYPE":"U","NORAD_CAT_ID":26464,"ELEMENT_SET_NO":999,"REV_AT_EPOCH":1995,"BSTAR":0,"MEAN_MOTION_DOT":2.741e-5,"MEAN_MOTION_DDOT":0},{"OBJECT_NAME":"ODIN","OBJECT_ID":"2001-007A","EPOCH":"2026-04-01T01:16:44.050368","MEAN_MOTION":15.60859288,"ECCENTRICITY":0.0004781,"INCLINATION":97.4018,"RA_OF_ASC_NODE":128.0466,"ARG_OF_PERICENTER":94.7893,"MEAN_ANOMALY":265.3911,"EPHEMERIS_TYPE":0,"CLASSIFICATION_TYPE":"U","NORAD_CAT_ID":26702,"ELEMENT_SET_NO":999,"REV_AT_EPOCH":37732,"BSTAR":0.00068067,"MEAN_MOTION_DOT":0.00057026,"MEAN_MOTION_DDOT":0},{"OBJECT_NAME":"TIMED","OBJECT_ID":"2001-055B","EPOCH":"2026-04-01T12:44:42.314784","MEAN_MOTION":14.95100807,"ECCENTRICITY":0.0002702,"INCLINATION":74.0708,"RA_OF_ASC_NODE":29.3432,"ARG_OF_PERICENTER":246.595,"MEAN_ANOMALY":113.4951,"EPHEMERIS_TYPE":0,"CLASSIFICATION_TYPE":"U","NORAD_CAT_ID":26998,"ELEMENT_SET_NO":999,"REV_AT_EPOCH":31936,"BSTAR":0.00016585,"MEAN_MOTION_DOT":1.779e-5,"MEAN_MOTION_DDOT":0},{"OBJECT_NAME":"CORIOLIS","OBJECT_ID":"2003-001A","EPOCH":"2026-04-01T11:02:48.496992","MEAN_MOTION":14.19921729,"ECCENTRICITY":0.0015127,"INCLINATION":98.7158,"RA_OF_ASC_NODE":99.5097,"ARG_OF_PERICENTER":75.438,"MEAN_ANOMALY":284.8473,"EPHEMERIS_TYPE":0,"CLASSIFICATION_TYPE":"U","NORAD_CAT_ID":27640,"ELEMENT_SET_NO":999,"REV_AT_EPOCH":20333,"BSTAR":9.2517e-5,"MEAN_MOTION_DOT":1.53e-6,"MEAN_MOTION_DDOT":0},{"OBJECT_NAME":"SORCE","OBJECT_ID":"2003-004A","EPOCH":"2026-04-01T02:07:22.475712","MEAN_MOTION":15.03271719,"ECCENTRICITY":0.0018056,"INCLINATION":39.9926,"RA_OF_ASC_NODE":341.4113,"ARG_OF_PERICENTER":222.3919,"MEAN_ANOMALY":137.548,"EPHEMERIS_TYPE":0,"CLASSIFICATION_TYPE":"U","NORAD_CAT_ID":27651,"ELEMENT_SET_NO":999,"REV_AT_EPOCH":26029,"BSTAR":0.00034384,"MEAN_MOTION_DOT":4.61e-5,"MEAN_MOTION_DDOT":0},{"OBJECT_NAME":"MOST","OBJECT_ID":"2003-031D","EPOCH":"2026-04-01T11:28:57.936576","MEAN_MOTION":14.21305613,"ECCENTRICITY":0.0010902,"INCLINATION":98.7078,"RA_OF_ASC_NODE":100.2672,"ARG_OF_PERICENTER":111.7739,"MEAN_ANOMALY":248.46,"EPHEMERIS_TYPE":0,"CLASSIFICATION_TYPE":"U","NORAD_CAT_ID":27843,"ELEMENT_SET_NO":999,"REV_AT_EPOCH":17981,"BSTAR":7.0274e-5,"MEAN_MOTION_DOT":1.1e-6,"MEAN_MOTION_DDOT":0},{"OBJECT_NAME":"SCISAT 1","OBJECT_ID":"2003-036A","EPOCH":"2026-04-01T02:30:32.783904","MEAN_MOTION":14.81354478,"ECCENTRICITY":0.0006279,"INCLINATION":73.9308,"RA_OF_ASC_NODE":324.4895,"ARG_OF_PERICENTER":39.1185,"MEAN_ANOMALY":321.0444,"EPHEMERIS_TYPE":0,"CLASSIFICATION_TYPE":"U","NORAD_CAT_ID":27858,"ELEMENT_SET_NO":999,"REV_AT_EPOCH":22003,"BSTAR":0.00013038,"MEAN_MOTION_DOT":9.83e-6,"MEAN_MOTION_DDOT":0},{"OBJECT_NAME":"SWIFT","OBJECT_ID":"2004-047A","EPOCH":"2026-04-01T01:11:49.998336","MEAN_MOTION":15.61399103,"ECCENTRICITY":0.0003032,"INCLINATION":20.5541,"RA_OF_ASC_NODE":56.772,"ARG_OF_PERICENTER":313.8301,"MEAN_ANOMALY":46.1893,"EPHEMERIS_TYPE":0,"CLASSIFICATION_TYPE":"U","NORAD_CAT_ID":28485,"ELEMENT_SET_NO":999,"REV_AT_EPOCH":17476,"BSTAR":0.00063734,"MEAN_MOTION_DOT":0.00057966,"MEAN_MOTION_DDOT":0},{"OBJECT_NAME":"HINODE (SOLAR-B)","OBJECT_ID":"2006-041A","EPOCH":"2026-04-01T11:10:59.330208","MEAN_MOTION":14.68510643,"ECCENTRICITY":0.0017836,"INCLINATION":98.0604,"RA_OF_ASC_NODE":108.7378,"ARG_OF_PERICENTER":167.1093,"MEAN_ANOMALY":193.0571,"EPHEMERIS_TYPE":0,"CLASSIFICATION_TYPE":"U","NORAD_CAT_ID":29479,"ELEMENT_SET_NO":999,"REV_AT_EPOCH":4361,"BSTAR":0.00014293,"MEAN_MOTION_DOT":7.81e-6,"MEAN_MOTION_DDOT":0},{"OBJECT_NAME":"SHIJIAN-6 02A (SJ-6 02A)","OBJECT_ID":"2006-046A","EPOCH":"2026-04-01T11:38:25.639008","MEAN_MOTION":15.16045268,"ECCENTRICITY":0.0004528,"INCLINATION":97.6456,"RA_OF_ASC_NODE":131.9936,"ARG_OF_PERICENTER":63.2154,"MEAN_ANOMALY":296.9541,"EPHEMERIS_TYPE":0,"CLASSIFICATION_TYPE":"U","NORAD_CAT_ID":29505,"ELEMENT_SET_NO":999,"REV_AT_EPOCH":6064,"BSTAR":0.00052766,"MEAN_MOTION_DOT":0.00010087,"MEAN_MOTION_DDOT":0}]
