HST                     
1 20580U 90037B   26091.51659578  .00009290  00000+0  30432-3 0  9992
2 20580  28.4720 244.2399 0001988  30.6605 329.4107 15.29849412776819
POLAR                   
1 23802U 96013A   26090.24444198  .00000072  00000+0  00000+0 0  9994
2 23802  79.7777 227.9483 6391582 211.7339  85.2867  1.29845737143848
SWAS                    
1 25560U 98071A   26091.33835159  .00004239  00000+0  27353-3 0  9998
2 25560  69.8957  65.6139 0005884 337.8312  22.2597 15.09054527485671
CXO                     
1 25867U 99040B   26092.68652473  .00000738  00000+0  00000+0 0  9996
2 25867  54.9638 118.8603 7957023 310.6798   0.0859  0.37810289 17041
XMM-NEWTON              
1 25989U 99066A   26091.55905200  .00000020  00000+0  00000+0 0  9997
2 25989  64.8690 283.9727 4699859  66.2848   0.0194  0.50131173 22627
TERRA                   
1 25994U 99068A   26091.45192313  .00000472  00000+0  10511-3 0  9990
2 25994  97.9545 144.0117 0003634 104.6473 313.0502 14.61038626398404
CLUSTER II-FM7 (SAMBA)  
1 26410U 00041A   26090.03773165  .00002444  00000+0  00000+0 0  9999
2 26410 149.3581  38.1493 8953066 254.4502   0.4223  0.44796982 19968
CLUSTER II-FM8 (TANGO)  
1 26464U 00045B   26091.85737413  .00002741  00000+0  00000+0 0  9999
2 26464 149.6610  39.2823 8959323 255.4590   0.3323  0.44400395 19951
ODIN                    
1 26702U 01007A   26091.05328762  .00057026  00000+0  68067-3 0  9995
2 26702  97.4018 128.0466 0004781  94.7893 265.3911 15.60859288377326
TIMED                   
1 26998U 01055B   26091.53104531  .00001779  00000+0  16585-3 0  9996
2 26998  74.0708  29.3432 0002702 246.5950 113.4951 14.95100807319368
CORIOLIS                
1 27640U 03001A   26091.46028353  .00000153  00000+0  92517-4 0  9998
2 27640  98.7158  99.5097 0015127  75.4380 284.8473 14.19921729203333
SORCE                   
1 27651U 03004A   26091.08845458  .00004610  00000+0  34384-3 0  9993
2 27651  39.9926 341.4113 0018056 222.3919 137.5480 15.03271719260299
MOST                    
1 27843U 03031D   26091.47844834  .00000110  00000+0  70274-4 0  9996
2 27843  98.7078 100.2672 0010902 111.7739 248.4600 14.21305613179810
SCISAT 1                
1 27858U 03036A   26091.10454611  .00000983  00000+0  13038-3 0  9999
2 27858  73.9308 324.4895 0006279  39.1185 321.0444 14.81354478220038
SWIFT                   
1 28485U 04047A   26091.04988424  .00057966  00000+0  63734-3 0  9997
2 28485  20.5541  56.7720 0003032 313.8301  46.1893 15.61399103174764
HINODE (SOLAR-B)        
1 29479U 06041A   26091.46596447  .00000781  00000+0  14293-3 0  9992
2 29479  98.0604 108.7378 0017836 167.1093 193.0571 14.68510643 43614
SHIJIAN-6 02A (SJ-6 02A)
1 29505U 06046A   26091.48501897  .00010087  00000+0  52766-3 0  9991
2 29505  97.6456 131.9936 0004528  63.2154 296.9541 15.16045268 60642
